[{"OBJECT_NAME":"ONEWEB-0700","OBJECT_ID":"2024-188N","EPOCH":"2025-09-12T19:26:55.948992","MEAN_MOTION":13.10374313,"ECCENTRICITY":0.00018218,"INCLINATION":87.8733,"RA_OF_ASC_NODE":91.4543,"ARG_OF_PERICENTER":108.2948,"MEAN_ANOMALY":251.8378,"EPHEMERIS_TYPE":0,"CLASSIFICATION_TYPE":"U","NORAD_CAT_ID":61606,"ELEMENT_SET_NO":999,"REV_AT_EPOCH":4697,"BSTAR":-0.0017199578,"MEAN_MOTION_DOT":-5.88e-6,"MEAN_MOTION_DDOT":0},{"OBJECT_NAME":"ONEWEB-0701","OBJECT_ID":"2024-188P","EPOCH":"2025-09-12T23:30:45.298080","MEAN_MOTION":13.10375493,"ECCENTRICITY":0.0001234,"INCLINATION":87.8741,"RA_OF_ASC_NODE":91.5402,"ARG_OF_PERICENTER":115.3187,"MEAN_ANOMALY":244.8069,"EPHEMERIS_TYPE":0,"CLASSIFICATION_TYPE":"U","NORAD_CAT_ID":61607,"ELEMENT_SET_NO":999,"REV_AT_EPOCH":4700,"BSTAR":0.00036463006,"MEAN_MOTION_DOT":1.4e-6,"MEAN_MOTION_DDOT":0},{"OBJECT_NAME":"ONEWEB-0702","OBJECT_ID":"2024-188Q","EPOCH":"2025-09-13T05:09:22.103424","MEAN_MOTION":13.1141364,"ECCENTRICITY":0.00016227,"INCLINATION":87.8706,"RA_OF_ASC_NODE":76.2015,"ARG_OF_PERICENTER":123.7374,"MEAN_ANOMALY":236.3909,"EPHEMERIS_TYPE":0,"CLASSIFICATION_TYPE":"U","NORAD_CAT_ID":61608,"ELEMENT_SET_NO":999,"REV_AT_EPOCH":4818,"BSTAR":-0.0012725092,"MEAN_MOTION_DOT":-4.38e-6,"MEAN_MOTION_DDOT":0},{"OBJECT_NAME":"ONEWEB-0704","OBJECT_ID":"2024-188R","EPOCH":"2025-09-13T06:33:49.984416","MEAN_MOTION":13.10374895,"ECCENTRICITY":0.00016735,"INCLINATION":87.8766,"RA_OF_ASC_NODE":91.4327,"ARG_OF_PERICENTER":120.9368,"MEAN_ANOMALY":239.1924,"EPHEMERIS_TYPE":0,"CLASSIFICATION_TYPE":"U","NORAD_CAT_ID":61609,"ELEMENT_SET_NO":999,"REV_AT_EPOCH":4702,"BSTAR":-0.0014431032,"MEAN_MOTION_DOT":-4.91e-6,"MEAN_MOTION_DDOT":0},{"OBJECT_NAME":"ONEWEB-0705","OBJECT_ID":"2024-188S","EPOCH":"2025-09-12T19:41:17.145312","MEAN_MOTION":13.10376042,"ECCENTRICITY":0.00025898,"INCLINATION":87.8748,"RA_OF_ASC_NODE":91.5562,"ARG_OF_PERICENTER":107.218,"MEAN_ANOMALY":252.9231,"EPHEMERIS_TYPE":0,"CLASSIFICATION_TYPE":"U","NORAD_CAT_ID":61610,"ELEMENT_SET_NO":999,"REV_AT_EPOCH":3913,"BSTAR":-0.00058175687,"MEAN_MOTION_DOT":-1.9e-6,"MEAN_MOTION_DDOT":0},{"OBJECT_NAME":"ONEWEB-0706","OBJECT_ID":"2024-188T","EPOCH":"2025-09-13T06:19:29.360928","MEAN_MOTION":13.1037485,"ECCENTRICITY":0.00018068,"INCLINATION":87.8737,"RA_OF_ASC_NODE":91.4953,"ARG_OF_PERICENTER":108.3915,"MEAN_ANOMALY":251.7409,"EPHEMERIS_TYPE":0,"CLASSIFICATION_TYPE":"U","NORAD_CAT_ID":61611,"ELEMENT_SET_NO":999,"REV_AT_EPOCH":4711,"BSTAR":-0.0017617309,"MEAN_MOTION_DOT":-6.02e-6,"MEAN_MOTION_DDOT":0},{"OBJECT_NAME":"ONEWEB-0707","OBJECT_ID":"2024-188U","EPOCH":"2025-09-12T12:09:31.131648","MEAN_MOTION":13.10373539,"ECCENTRICITY":0.00016952,"INCLINATION":87.8749,"RA_OF_ASC_NODE":91.613,"ARG_OF_PERICENTER":108.1406,"MEAN_ANOMALY":251.9906,"EPHEMERIS_TYPE":0,"CLASSIFICATION_TYPE":"U","NORAD_CAT_ID":61612,"ELEMENT_SET_NO":999,"REV_AT_EPOCH":4695,"BSTAR":-0.0014416233,"MEAN_MOTION_DOT":-4.91e-6,"MEAN_MOTION_DDOT":0},{"OBJECT_NAME":"ONEWEB-0708","OBJECT_ID":"2024-188V","EPOCH":"2025-09-12T23:35:33.027360","MEAN_MOTION":13.10375548,"ECCENTRICITY":0.00022218,"INCLINATION":87.8762,"RA_OF_ASC_NODE":91.5583,"ARG_OF_PERICENTER":104.5372,"MEAN_ANOMALY":255.6002,"EPHEMERIS_TYPE":0,"CLASSIFICATION_TYPE":"U","NORAD_CAT_ID":61613,"ELEMENT_SET_NO":999,"REV_AT_EPOCH":4699,"BSTAR":0.0010305166,"MEAN_MOTION_DOT":3.72e-6,"MEAN_MOTION_DDOT":0}]
