ONEWEB-0700             
1 61606U 24188N   25255.81036978 -.00000588  00000+0 -17200-2 0  9997
2 61606  87.8733  91.4543 0001821 108.2948 251.8378 13.10374313 46973
ONEWEB-0701             
1 61607U 24188P   25255.97969095  .00000140  00000+0  36463-3 0  9995
2 61607  87.8741  91.5402 0001234 115.3187 244.8069 13.10375493 47004
ONEWEB-0702             
1 61608U 24188Q   25256.21483916 -.00000438  00000+0 -12725-2 0  9993
2 61608  87.8706  76.2015 0001622 123.7374 236.3909 13.11413640 48185
ONEWEB-0704             
1 61609U 24188R   25256.27349519 -.00000491  00000+0 -14431-2 0  9995
2 61609  87.8766  91.4327 0001673 120.9368 239.1924 13.10374895 47022
ONEWEB-0705             
1 61610U 24188S   25255.82033733 -.00000190  00000+0 -58176-3 0  9996
2 61610  87.8748  91.5562 0002589 107.2180 252.9231 13.10376042 39136
ONEWEB-0706             
1 61611U 24188T   25256.26353427 -.00000602  00000+0 -17617-2 0  9993
2 61611  87.8737  91.4953 0001806 108.3915 251.7409 13.10374850 47113
ONEWEB-0707             
1 61612U 24188U   25255.50661032 -.00000491  00000+0 -14416-2 0  9994
2 61612  87.8749  91.6130 0001695 108.1406 251.9906 13.10373539 46953
ONEWEB-0708             
1 61613U 24188V   25255.98302115  .00000372  00000+0  10305-2 0  9990
2 61613  87.8762  91.5583 0002221 104.5372 255.6002 13.10375548 46992
